start=new Date('2021-09-01T00:00:00.000Z').valueOf();
sats=[{"ECCENTRICITY":"0.00018680","APOAPSIS":"548.572","GP_ID":"183841208","INCLINATION":"53.0543","REF_FRAME":"TEME","MEAN_ELEMENT_THEORY":"SGP4","ARG_OF_PERICENTER":"69.4435","FILE":"3106454","COUNTRY_CODE":"US","MEAN_MOTION_DOT":"-0.00000092","MEAN_ANOMALY":"290.6754","RA_OF_ASC_NODE":"142.2693","EPHEMERIS_TYPE":"0","PERIAPSIS":"545.984","EPOCH":"2021-08-31T21:43:11.380512","TLE_LINE1":"1 47143U 20088X   21243.90499283 -.00000092  00000-0  12720-4 0  9991","LAUNCH_DATE":"2020-11-25","ELEMENT_SET_NO":"999","TLE_LINE2":"2 47143  53.0543 142.2693 0001868  69.4435 290.6754 15.06378975 43160","OBJECT_NAME":"STARLINK-1856","DECAY_DATE":null,"OBJECT_TYPE":"PAYLOAD","OBJECT_ID":"2020-088X","CENTER_NAME":"EARTH","CLASSIFICATION_TYPE":"U","MEAN_MOTION":"15.06378975","SEMIMAJOR_AXIS":"6925.413","MEAN_MOTION_DDOT":"0.0000000000000","TIME_SYSTEM":"UTC","BSTAR":"0.00001272000000","REV_AT_EPOCH":"4316","SITE":"AFETR","RCS_SIZE":"LARGE","PERIOD":"95.593","NORAD_CAT_ID":"47143"},{"REV_AT_EPOCH":"4330","SITE":"AFETR","NORAD_CAT_ID":"47144","PERIOD":"95.593","RCS_SIZE":"LARGE","TIME_SYSTEM":"UTC","MEAN_MOTION_DDOT":"0.0000000000000","SEMIMAJOR_AXIS":"6925.370","MEAN_MOTION":"15.06392923","BSTAR":"0.00007082900000","CLASSIFICATION_TYPE":"U","CENTER_NAME":"EARTH","OBJECT_ID":"2020-088Y","OBJECT_NAME":"STARLINK-1857","OBJECT_TYPE":"PAYLOAD","DECAY_DATE":null,"LAUNCH_DATE":"2020-11-25","ELEMENT_SET_NO":"999","TLE_LINE1":"1 47144U 20088Y   21243.89115564  .00000773  00000-0  70829-4 0  9996","EPOCH":"2021-08-31T21:23:15.847296","PERIAPSIS":"545.950","TLE_LINE2":"2 47144  53.0545 132.3346 0001856  73.1450 286.9743 15.06392923 43305","MEAN_MOTION_DOT":"0.00000773","MEAN_ANOMALY":"286.9743","FILE":"3106454","COUNTRY_CODE":"US","EPHEMERIS_TYPE":"0","RA_OF_ASC_NODE":"132.3346","GP_ID":"183841458","APOAPSIS":"548.521","ECCENTRICITY":"0.00018560","MEAN_ELEMENT_THEORY":"SGP4","ARG_OF_PERICENTER":"73.1450","REF_FRAME":"TEME","INCLINATION":"53.0545"},{"REV_AT_EPOCH":"4330","SITE":"AFETR","NORAD_CAT_ID":"47145","RCS_SIZE":"LARGE","PERIOD":"95.593","TIME_SYSTEM":"UTC","MEAN_MOTION_DDOT":"0.0000000000000","SEMIMAJOR_AXIS":"6925.383","MEAN_MOTION":"15.06388838","BSTAR":"0.00002300800000","CLASSIFICATION_TYPE":"U","CENTER_NAME":"EARTH","OBJECT_ID":"2020-088Z","OBJECT_NAME":"STARLINK-1858","OBJECT_TYPE":"PAYLOAD","DECAY_DATE":null,"ELEMENT_SET_NO":"999","LAUNCH_DATE":"2020-11-25","TLE_LINE1":"1 47145U 20088Z   21243.88377589  .00000059  00000-0  23008-4 0  9997","EPOCH":"2021-08-31T21:12:38.236896","PERIAPSIS":"542.587","TLE_LINE2":"2 47145  53.0534 132.3671 0006730 348.9030  11.1809 15.06388838 43309","MEAN_ANOMALY":"11.1809","MEAN_MOTION_DOT":"0.00000059","COUNTRY_CODE":"US","FILE":"3106454","EPHEMERIS_TYPE":"0","RA_OF_ASC_NODE":"132.3671","GP_ID":"183842210","APOAPSIS":"551.909","ECCENTRICITY":"0.00067300","ARG_OF_PERICENTER":"348.9030","MEAN_ELEMENT_THEORY":"SGP4","REF_FRAME":"TEME","INCLINATION":"53.0534"},{"TLE_LINE2":"2 47146  53.0554 162.5365 0001791  63.2969 296.8203 15.06381799 42877","LAUNCH_DATE":"2020-11-25","ELEMENT_SET_NO":"999","TLE_LINE1":"1 47146U 20088AA  21243.84691224 -.00000541  00000-0 -17408-4 0  9994","EPOCH":"2021-08-31T20:19:33.217536","PERIAPSIS":"546.029","OBJECT_TYPE":"PAYLOAD","DECAY_DATE":null,"OBJECT_NAME":"STARLINK-1859","MEAN_ELEMENT_THEORY":"SGP4","ARG_OF_PERICENTER":"63.2969","REF_FRAME":"TEME","INCLINATION":"53.0554","GP_ID":"183842460","APOAPSIS":"548.510","ECCENTRICITY":"0.00017910","EPHEMERIS_TYPE":"0","RA_OF_ASC_NODE":"162.5365","MEAN_ANOMALY":"296.8203","MEAN_MOTION_DOT":"-0.00000541","FILE":"3106454","COUNTRY_CODE":"US","BSTAR":"-0.00001740800000","TIME_SYSTEM":"UTC","MEAN_MOTION_DDOT":"0.0000000000000","SEMIMAJOR_AXIS":"6925.404","MEAN_MOTION":"15.06381799","NORAD_CAT_ID":"47146","RCS_SIZE":"LARGE","PERIOD":"95.593","REV_AT_EPOCH":"4287","SITE":"AFETR","CENTER_NAME":"EARTH","OBJECT_ID":"2020-088AA","CLASSIFICATION_TYPE":"U"},{"PERIAPSIS":"545.910","EPOCH":"2021-08-31T17:11:09.210912","TLE_LINE1":"1 47147U 20088AB  21243.71607883  .00001663  00000-0  13055-3 0  9996","ELEMENT_SET_NO":"999","LAUNCH_DATE":"2020-11-25","TLE_LINE2":"2 47147  53.0568 153.1362 0001941  60.6080 299.5103 15.06386849 43004","OBJECT_NAME":"STARLINK-1860","DECAY_DATE":null,"OBJECT_TYPE":"PAYLOAD","ECCENTRICITY":"0.00019410","APOAPSIS":"548.598","GP_ID":"183841708","INCLINATION":"53.0568","REF_FRAME":"TEME","ARG_OF_PERICENTER":"60.6080","MEAN_ELEMENT_THEORY":"SGP4","COUNTRY_CODE":"US","FILE":"3106454","MEAN_ANOMALY":"299.5103","MEAN_MOTION_DOT":"0.00001663","RA_OF_ASC_NODE":"153.1362","EPHEMERIS_TYPE":"0","MEAN_MOTION":"15.06386849","SEMIMAJOR_AXIS":"6925.389","MEAN_MOTION_DDOT":"0.0000000000000","TIME_SYSTEM":"UTC","BSTAR":"0.00013055000000","REV_AT_EPOCH":"4300","SITE":"AFETR","RCS_SIZE":"LARGE","PERIOD":"95.593","NORAD_CAT_ID":"47147","OBJECT_ID":"2020-088AB","CENTER_NAME":"EARTH","CLASSIFICATION_TYPE":"U"},{"DECAY_DATE":null,"OBJECT_TYPE":"PAYLOAD","OBJECT_NAME":"STARLINK-1861","TLE_LINE2":"2 47148  53.0560 142.3344 0001688  67.2339 292.8828 15.06376706 43163","TLE_LINE1":"1 47148U 20088AC  21243.89024581  .00000647  00000-0  62382-4 0  9993","LAUNCH_DATE":"2020-11-25","ELEMENT_SET_NO":"999","PERIAPSIS":"546.116","EPOCH":"2021-08-31T21:21:57.237984","EPHEMERIS_TYPE":"0","RA_OF_ASC_NODE":"142.3344","MEAN_ANOMALY":"292.8828","MEAN_MOTION_DOT":"0.00000647","COUNTRY_CODE":"US","FILE":"3106454","MEAN_ELEMENT_THEORY":"SGP4","ARG_OF_PERICENTER":"67.2339","INCLINATION":"53.0560","REF_FRAME":"TEME","GP_ID":"183841958","ECCENTRICITY":"0.00016880","APOAPSIS":"548.454","NORAD_CAT_ID":"47148","PERIOD":"95.594","RCS_SIZE":"LARGE","REV_AT_EPOCH":"4316","SITE":"AFETR","BSTAR":"0.00006238200000","MEAN_MOTION_DDOT":"0.0000000000000","TIME_SYSTEM":"UTC","MEAN_MOTION":"15.06376706","SEMIMAJOR_AXIS":"6925.420","CLASSIFICATION_TYPE":"U","OBJECT_ID":"2020-088AC","CENTER_NAME":"EARTH"},{"MEAN_ANOMALY":"292.0897","MEAN_MOTION_DOT":"0.00001104","COUNTRY_CODE":"US","FILE":"3106454","EPHEMERIS_TYPE":"0","RA_OF_ASC_NODE":"152.5210","GP_ID":"183842710","APOAPSIS":"548.530","ECCENTRICITY":"0.00017930","MEAN_ELEMENT_THEORY":"SGP4","ARG_OF_PERICENTER":"68.0283","REF_FRAME":"TEME","INCLINATION":"53.0559","OBJECT_NAME":"STARLINK-1862","OBJECT_TYPE":"PAYLOAD","DECAY_DATE":null,"ELEMENT_SET_NO":"999","LAUNCH_DATE":"2020-11-25","TLE_LINE1":"1 47149U 20088AD  21243.85246392  .00001104  00000-0  93039-4 0  9998","EPOCH":"2021-08-31T20:27:32.882688","PERIAPSIS":"546.047","TLE_LINE2":"2 47149  53.0559 152.5210 0001793  68.0283 292.0897 15.06375605 43751","CLASSIFICATION_TYPE":"U","CENTER_NAME":"EARTH","OBJECT_ID":"2020-088AD","SITE":"AFETR","REV_AT_EPOCH":"4375","NORAD_CAT_ID":"47149","PERIOD":"95.594","RCS_SIZE":"LARGE","TIME_SYSTEM":"UTC","MEAN_MOTION_DDOT":"0.0000000000000","SEMIMAJOR_AXIS":"6925.423","MEAN_MOTION":"15.06375605","BSTAR":"0.00009303900000"},{"CLASSIFICATION_TYPE":"U","OBJECT_ID":"2020-088AE","CENTER_NAME":"EARTH","SITE":"AFETR","REV_AT_EPOCH":"4316","NORAD_CAT_ID":"47150","RCS_SIZE":"LARGE","PERIOD":"95.593","MEAN_MOTION_DDOT":"0.0000000000000","TIME_SYSTEM":"UTC","MEAN_MOTION":"15.06381226","SEMIMAJOR_AXIS":"6925.406","BSTAR":"-0.00002966700000","MEAN_ANOMALY":"285.9176","MEAN_MOTION_DOT":"-0.00000723","FILE":"3106454","COUNTRY_CODE":"US","EPHEMERIS_TYPE":"0","RA_OF_ASC_NODE":"142.5524","GP_ID":"183842960","ECCENTRICITY":"0.00017680","APOAPSIS":"548.496","MEAN_ELEMENT_THEORY":"SGP4","ARG_OF_PERICENTER":"74.2008","INCLINATION":"53.0557","REF_FRAME":"TEME","OBJECT_NAME":"STARLINK-1863","DECAY_DATE":null,"OBJECT_TYPE":"PAYLOAD","TLE_LINE1":"1 47150U 20088AE  21243.84601656 -.00000723  00000-0 -29667-4 0  9991","LAUNCH_DATE":"2020-11-25","ELEMENT_SET_NO":"999","PERIAPSIS":"546.047","EPOCH":"2021-08-31T20:18:15.830784","TLE_LINE2":"2 47150  53.0557 142.5524 0001768  74.2008 285.9176 15.06381226 43166"},{"RA_OF_ASC_NODE":"152.5447","EPHEMERIS_TYPE":"0","COUNTRY_CODE":"US","FILE":"3106454","MEAN_ANOMALY":"287.8156","MEAN_MOTION_DOT":"0.00000781","REF_FRAME":"TEME","INCLINATION":"53.0550","MEAN_ELEMENT_THEORY":"SGP4","ARG_OF_PERICENTER":"72.3014","APOAPSIS":"548.450","ECCENTRICITY":"0.00016670","GP_ID":"183841209","OBJECT_TYPE":"PAYLOAD","DECAY_DATE":null,"OBJECT_NAME":"STARLINK-1864","TLE_LINE2":"2 47151  53.0550 152.5447 0001667  72.3014 287.8156 15.06373303 43019","EPOCH":"2021-08-31T20:16:55.922880","PERIAPSIS":"546.141","LAUNCH_DATE":"2020-11-25","ELEMENT_SET_NO":"999","TLE_LINE1":"1 47151U 20088AF  21243.84509170  .00000781  00000-0  71391-4 0  9993","CLASSIFICATION_TYPE":"U","CENTER_NAME":"EARTH","OBJECT_ID":"2020-088AF","RCS_SIZE":"LARGE","PERIOD":"95.594","NORAD_CAT_ID":"47151","SITE":"AFETR","REV_AT_EPOCH":"4301","BSTAR":"0.00007139100000","SEMIMAJOR_AXIS":"6925.430","MEAN_MOTION":"15.06373303","TIME_SYSTEM":"UTC","MEAN_MOTION_DDOT":"0.0000000000000"},{"PERIAPSIS":"545.918","EPOCH":"2021-08-31T21:31:14.549088","TLE_LINE1":"1 47152U 20088AG  21243.89669617 -.00000575  00000-0 -19709-4 0  9990","ELEMENT_SET_NO":"999","LAUNCH_DATE":"2020-11-25","TLE_LINE2":"2 47152  53.0544 152.3275 0001966  65.7026 294.4168 15.06378497 43028","OBJECT_NAME":"STARLINK-1866","DECAY_DATE":null,"OBJECT_TYPE":"PAYLOAD","ECCENTRICITY":"0.00019660","APOAPSIS":"548.641","GP_ID":"183841459","INCLINATION":"53.0544","REF_FRAME":"TEME","ARG_OF_PERICENTER":"65.7026","MEAN_ELEMENT_THEORY":"SGP4","COUNTRY_CODE":"US","FILE":"3106454","MEAN_ANOMALY":"294.4168","MEAN_MOTION_DOT":"-0.00000575","RA_OF_ASC_NODE":"152.3275","EPHEMERIS_TYPE":"0","MEAN_MOTION":"15.06378497","SEMIMAJOR_AXIS":"6925.414","MEAN_MOTION_DDOT":"0.0000000000000","TIME_SYSTEM":"UTC","BSTAR":"-0.00001970900000","REV_AT_EPOCH":"4302","SITE":"AFETR","PERIOD":"95.594","RCS_SIZE":"LARGE","NORAD_CAT_ID":"47152","OBJECT_ID":"2020-088AG","CENTER_NAME":"EARTH","CLASSIFICATION_TYPE":"U"}];
